IRIDIUM 119             
1 42959U 17061E   25033.86317690  .00000160  00000+0  50216-4 0  9991
2 42959  86.3945 233.8608 0002047  98.5164 261.6264 14.34218951383247
IRIDIUM 107             
1 42960U 17061F   25033.95199280  .00000214  00000+0  69294-4 0  9992
2 42960  86.3943 233.8417 0002364  99.9281 260.2182 14.34219620383262
IRIDIUM 132             
1 42961U 17061G   25033.95831559  .00000201  00000+0  64709-4 0  9997
2 42961  86.3941 233.8221 0002182  91.3966 268.7479 14.34219427383265
IRIDIUM 136             
1 42962U 17061H   25033.50165747  .00000191  00000+0  60973-4 0  9995
2 42962  86.3943 234.0174 0002151 102.1178 258.0259 14.34219906383215
IRIDIUM 139             
1 42963U 17061J   25033.50799806  .00000022  00000+0  93136-6 0  9997
2 42963  86.3945 234.0684 0002282  94.6830 265.4627 14.34215048383224
IRIDIUM 125             
1 42964U 17061K   25033.49532020  .00000194  00000+0  62220-4 0  9997
2 42964  86.3945 234.1258 0001940 108.9278 251.2128 14.34220437383236
IRIDIUM 135             
1 43070U 17083A   25033.81827243  .00000669  00000+0  23187-3 0  9995
2 43070  86.4020 170.7350 0002079  88.8995 271.2439 14.34217501372574
IRIDIUM 138             
1 43071U 17083B   25033.91341672  .00000444  00000+0  15159-3 0  9995
2 43071  86.4012 170.3842 0001534 108.9916 251.1446 14.34220526372576
